OBJECT_NAME,OBJECT_ID,EPOCH,MEAN_MOTION,ECCENTRICITY,INCLINATION,RA_OF_ASC_NODE,ARG_OF_PERICENTER,MEAN_ANOMALY,EPHEMERIS_TYPE,CLASSIFICATION_TYPE,NORAD_CAT_ID,ELEMENT_SET_NO,REV_AT_EPOCH,BSTAR,MEAN_MOTION_DOT,MEAN_MOTION_DDOT
FENGYUN 3D,2017-072A,2026-07-11T19:31:25.765824,14.19743565,.0001735,99.0137,167.6818,21.9840,338.1409,0,U,43010,999,44848,-.89601513E-4,-.236E-5,0
NOAA 20 (JPSS-1),2017-073A,2026-07-11T17:48:30.190176,14.19516057,.00012587,98.7774,131.9870,127.6810,232.4481,0,U,43013,999,44795,.26695111E-4,.12E-6,0
GOES 17,2018-022A,2026-07-11T14:50:37.026240,1.00271771,.00004492,0.9970,85.3157,94.4423,242.9238,0,U,43226,999,3066,0,-.178E-5,0
SENTINEL-3B,2018-039A,2026-07-11T04:10:42.644352,14.26741288,.00010549,98.6238,259.3610,120.7417,239.3868,0,U,43437,999,42754,.3384739E-4,.38E-6,0
FENGYUN 2H,2018-050A,2026-07-11T19:04:00.981120,1.00267559,.00022622,3.0907,78.7867,131.9514,84.1467,0,U,43491,999,2968,0,-.126E-5,0
METOP-C,2018-087A,2026-07-11T18:34:30.864576,14.21518439,.00022226,98.6632,251.9266,98.2812,261.8618,0,U,43689,999,39832,.37958936E-4,.4E-6,0
GEO-KOMPSAT-2A,2018-100A,2026-07-11T17:35:23.942400,1.00271456,.00019504,0.0253,118.4246,343.0760,220.2516,0,U,43823,999,2787,0,-.339E-5,0
METEOR-M2 2,2019-038A,2026-07-11T18:15:09.476640,14.24371275,.0000949,98.9156,180.4095,11.1811,348.9388,0,U,44387,999,36479,-.86343648E-4,-.246E-5,0
ARKTIKA-M 1,2021-016A,2026-07-07T10:17:34.884672,2.00614486,.72950864,63.2524,54.6812,270.0380,14.5466,0,U,47719,999,3919,0,-.257E-5,0
FENGYUN 3E,2021-062A,2026-07-11T19:04:16.751712,14.19905018,.00024262,98.7501,195.9281,45.4532,314.6843,0,U,49008,999,26007,-.85936456E-4,-.226E-5,0
GOES 18,2022-021A,2026-07-11T18:02:21.358176,1.00272566,.00006114,0.0131,84.2137,110.7308,228.2976,0,U,51850,999,683,0,.101E-5,0
NOAA 21 (JPSS-2),2022-150A,2026-07-11T18:35:05.508384,14.19540717,.00027486,98.7061,131.1506,110.6787,249.4684,0,U,54234,999,19003,.21538495E-4,.2E-7,0
METEOSAT-12 (MTG-I1),2022-170C,2026-07-11T15:16:04.585152,1.00266959,.00037851,0.7212,19.0334,82.9511,56.3064,0,U,54743,999,1322,0,-.3E-7,0
TIANMU-1 03,2023-039A,2026-07-11T17:58:49.698912,15.47977951,.0002859,97.5236,7.6938,36.0815,324.0628,0,U,55973,999,18463,.18061719E-3,.9336E-4,0
TIANMU-1 04,2023-039B,2026-07-11T17:29:45.396960,15.48599154,.00033507,97.5171,6.8287,26.0193,334.1225,0,U,55974,999,18464,.18713259E-3,.989E-4,0
TIANMU-1 05,2023-039C,2026-07-11T17:32:51.971712,15.47900435,.00032672,97.5217,7.2809,54.9484,305.2072,0,U,55975,999,18461,.18264058E-3,.9417E-4,0
TIANMU-1 06,2023-039D,2026-07-11T17:36:53.478720,15.48496707,.00033717,97.5224,7.9445,47.3904,312.7630,0,U,55976,999,18464,.18610923E-3,.98E-4,0
FENGYUN 3G,2023-055A,2026-07-11T14:50:28.464864,15.53679919,.00071293,49.9910,220.0356,39.8490,320.3000,0,U,56232,999,18380,.21076731E-3,.13307E-3,0
METEOR-M2 3,2023-091A,2026-07-11T18:15:08.789760,14.24048732,.00051482,98.6070,247.2344,97.9745,262.2019,0,U,57166,999,15801,.9116144E-5,-.22E-6,0
TIANMU-1 07,2023-101A,2026-07-11T18:10:42.029760,15.30089946,.00039634,97.2585,242.8635,71.6389,288.5283,0,U,57399,999,16540,.13031674E-3,.3721E-4,0
TIANMU-1 08,2023-101B,2026-07-11T17:22:34.150368,15.30093863,.0004904,97.2573,242.5979,55.6077,304.5627,0,U,57400,999,16539,.13360874E-3,.3817E-4,0
TIANMU-1 09,2023-101C,2026-07-11T18:32:02.867424,15.30134179,.00045664,97.2532,242.0483,72.4355,287.7385,0,U,57401,999,16540,.13422676E-3,.384E-4,0
TIANMU-1 10,2023-101D,2026-07-11T17:46:05.597184,15.30107263,.0005907,97.2611,243.0927,63.5962,296.5885,0,U,57402,999,16539,.13352752E-3,.3817E-4,0
FENGYUN 3F,2023-111A,2026-07-11T18:40:16.094784,14.19943062,.00013342,98.6826,262.3273,77.9515,282.1811,0,U,57490,999,15235,.21048741E-4,.1E-7,0
ARKTIKA-M 2,2023-198A,2026-07-10T04:34:00.609312,2.00608615,.69090643,63.2187,151.7914,267.3543,18.7503,0,U,58584,999,1878,0,.186E-5,0
TIANMU-1 11,2023-205A,2026-07-11T18:09:12.540960,15.27241931,.00067645,97.3443,213.9305,277.6601,82.3870,0,U,58645,999,14127,.12489003E-3,.3262E-4,0
TIANMU-1 12,2023-205B,2026-07-11T19:03:16.465248,15.27073095,.000559,97.3433,213.7157,250.1246,109.9391,0,U,58646,999,14126,.13171146E-3,.3426E-4,0
TIANMU-1 13,2023-205C,2026-07-11T18:17:02.874048,15.27065542,.00054562,97.3460,213.9629,227.0296,133.0486,0,U,58647,999,14125,.13198307E-3,.3432E-4,0
TIANMU-1 14,2023-205D,2026-07-11T17:54:42.920640,15.27109435,.00061231,97.3396,213.1102,235.0372,125.0292,0,U,58648,999,14125,.1308938E-3,.3408E-4,0
TIANMU-1 19,2023-208A,2026-07-11T17:15:30.595104,15.31941511,.0004256,97.4519,309.1524,211.8577,148.2408,0,U,58660,999,14108,.16166128E-3,.4907E-4,0
