FENGYUN 3D              
1 43010U 17072A   26192.81349266 -.00000236  00000+0 -89602-4 0  9995
2 43010  99.0137 167.6818 0001735  21.9840 338.1409 14.19743565448487
NOAA 20 (JPSS-1)        
1 43013U 17073A   26192.74201609  .00000012  00000+0  26695-4 0  9992
2 43013  98.7774 131.9870 0001258 127.6810 232.4481 14.19516057447957
GOES 17                 
1 43226U 18022A   26192.61848410 -.00000178  00000+0  00000+0 0  9997
2 43226   0.9970  85.3157 0000449  94.4423 242.9238  1.00271771 30667
SENTINEL-3B             
1 43437U 18039A   26192.17410468  .00000038  00000+0  33847-4 0  9992
2 43437  98.6238 259.3610 0001054 120.7417 239.3868 14.26741288427541
FENGYUN 2H              
1 43491U 18050A   26192.79445580 -.00000126  00000+0  00000+0 0  9995
2 43491   3.0907  78.7867 0002262 131.9514  84.1467  1.00267559 29681
METOP-C                 
1 43689U 18087A   26192.77396834  .00000040  00000+0  37959-4 0  9991
2 43689  98.6632 251.9266 0002222  98.2812 261.8618 14.21518439398320
GEO-KOMPSAT-2A          
1 43823U 18100A   26192.73291600 -.00000339  00000+0  00000+0 0  9992
2 43823   0.0253 118.4246 0001950 343.0760 220.2516  1.00271456 27874
METEOR-M2 2             
1 44387U 19038A   26192.76052635 -.00000246  00000+0 -86344-4 0  9993
2 44387  98.9156 180.4095 0000949  11.1811 348.9388 14.24371275364796
ARKTIKA-M 1             
1 47719U 21016A   26188.42887598 -.00000257  00000+0  00000+0 0  9997
2 47719  63.2524  54.6812 7295086 270.0380  14.5466  2.00614486 39194
FENGYUN 3E              
1 49008U 21062A   26192.79463833 -.00000226  00000+0 -85936-4 0  9991
2 49008  98.7501 195.9281 0002426  45.4532 314.6843 14.19905018260077
GOES 18                 
1 51850U 22021A   26192.75163609  .00000101  00000+0  00000+0 0  9993
2 51850   0.0131  84.2137 0000611 110.7308 228.2976  1.00272566  6831
NOAA 21 (JPSS-2)        
1 54234U 22150A   26192.77436931  .00000002  00000+0  21538-4 0  9992
2 54234  98.7061 131.1506 0002748 110.6787 249.4684 14.19540717190038
METEOSAT-12 (MTG-I1)    
1 54743U 22170C   26192.63616418 -.00000003  00000+0  00000+0 0  9992
2 54743   0.7212  19.0334 0003785  82.9511  56.3064  1.00266959 13226
TIANMU-1 03             
1 55973U 23039A   26192.74918633  .00009336  00000+0  18062-3 0  9997
2 55973  97.5236   7.6938 0002859  36.0815 324.0628 15.47977951184635
TIANMU-1 04             
1 55974U 23039B   26192.72899765  .00009890  00000+0  18713-3 0  9998
2 55974  97.5171   6.8287 0003350  26.0193 334.1225 15.48599154184649
TIANMU-1 05             
1 55975U 23039C   26192.73115708  .00009417  00000+0  18264-3 0  9994
2 55975  97.5217   7.2809 0003267  54.9484 305.2072 15.47900435184619
TIANMU-1 06             
1 55976U 23039D   26192.73395230  .00009800  00000+0  18611-3 0  9997
2 55976  97.5224   7.9445 0003371  47.3904 312.7630 15.48496707184649
FENGYUN 3G              
1 56232U 23055A   26192.61838501  .00013307  00000+0  21077-3 0  9998
2 56232  49.9910 220.0356 0007129  39.8490 320.3000 15.53679919183805
METEOR-M2 3             
1 57166U 23091A   26192.76051840 -.00000022  00000+0  91161-5 0  9998
2 57166  98.6070 247.2344 0005148  97.9745 262.2019 14.24048732158014
TIANMU-1 07             
1 57399U 23101A   26192.75743090  .00003721  00000+0  13032-3 0  9999
2 57399  97.2585 242.8635 0003963  71.6389 288.5283 15.30089946165403
TIANMU-1 08             
1 57400U 23101B   26192.72400637  .00003817  00000+0  13361-3 0  9997
2 57400  97.2573 242.5979 0004904  55.6077 304.5627 15.30093863165395
TIANMU-1 09             
1 57401U 23101C   26192.77225541  .00003840  00000+0  13423-3 0  9997
2 57401  97.2532 242.0483 0004566  72.4355 287.7385 15.30134179165407
TIANMU-1 10             
1 57402U 23101D   26192.74034256  .00003817  00000+0  13353-3 0  9992
2 57402  97.2611 243.0927 0005907  63.5962 296.5885 15.30107263165390
FENGYUN 3F              
1 57490U 23111A   26192.77796406  .00000001  00000+0  21049-4 0  9999
2 57490  98.6826 262.3273 0001334  77.9515 282.1811 14.19943062152354
ARKTIKA-M 2             
1 58584U 23198A   26191.19028483  .00000186  00000+0  00000+0 0  9990
2 58584  63.2187 151.7914 6909064 267.3543  18.7503  2.00608615 18787
TIANMU-1 11             
1 58645U 23205A   26192.75639515  .00003262  00000+0  12489-3 0  9990
2 58645  97.3443 213.9305 0006764 277.6601  82.3870 15.27241931141273
TIANMU-1 12             
1 58646U 23205B   26192.79394057  .00003426  00000+0  13171-3 0  9995
2 58646  97.3433 213.7157 0005590 250.1246 109.9391 15.27073095141260
TIANMU-1 13             
1 58647U 23205C   26192.76183882  .00003432  00000+0  13198-3 0  9991
2 58647  97.3460 213.9629 0005456 227.0296 133.0486 15.27065542141256
TIANMU-1 14             
1 58648U 23205D   26192.74633010  .00003408  00000+0  13089-3 0  9995
2 58648  97.3396 213.1102 0006123 235.0372 125.0292 15.27109435141255
TIANMU-1 19             
1 58660U 23208A   26192.71910411  .00004907  00000+0  16166-3 0  9996
2 58660  97.4519 309.1524 0004256 211.8577 148.2408 15.31941511141086
